{
  "type": "FeatureCollection",
  "features": [
    {
      "type": "Feature",
      "properties": {
        "norad_id": 37836,
        "name": "EUTELSAT 16A",
        "group": "eutelsat",
        "lat": -0.08283395715812954,
        "lon": -107.5284877042794,
        "alt_km": 35758.0965822619,
        "timestamp": "2025-12-04T10:51:49.777447+00:00",
        "meta_object_name": "EUTELSAT 16A",
        "meta_object_id": "2011-057A",
        "meta_epoch": "2025-12-04T01:49:01.299072",
        "meta_mean_motion": 1.00273228,
        "meta_eccentricity": 0.0006553,
        "meta_inclination": 0.0588,
        "meta_ra_of_asc_node": 347.3744,
        "meta_arg_of_pericenter": 272.349,
        "meta_mean_anomaly": 216.7036,
        "meta_ephemeris_type": 0,
        "meta_classification_type": "U",
        "meta_norad_cat_id": 37836,
        "meta_element_set_no": 999,
        "meta_rev_at_epoch": 537,
        "meta_bstar": 0,
        "meta_mean_motion_dot": 1.21e-06,
        "meta_mean_motion_ddot": 0,
        "tle_line1": "1 37836U 11057A   25338.07570948  .00000121  00000+0  00000+0 0  9994",
        "tle_line2": "2 37836   0.0588 347.3744 0006553 272.3490 216.7036  1.00273228  5373"
      },
      "geometry": {
        "type": "Point",
        "coordinates": [
          -107.5284877042794,
          -0.08283395715812954
        ]
      }
    },
    {
      "type": "Feature",
      "properties": {
        "norad_id": 38992,
        "name": "EUTELSAT 21B",
        "group": "eutelsat",
        "lat": -0.09099828790978047,
        "lon": -101.92283751321649,
        "alt_km": 35771.26082585144,
        "timestamp": "2025-12-04T10:51:49.777459+00:00",
        "meta_object_name": "EUTELSAT 21B",
        "meta_object_id": "2012-062B",
        "meta_epoch": "2025-12-03T20:35:38.719392",
        "meta_mean_motion": 1.00273956,
        "meta_eccentricity": 0.00033734,
        "meta_inclination": 0.0676,
        "meta_ra_of_asc_node": 346.8433,
        "meta_arg_of_pericenter": 279.1801,
        "meta_mean_anomaly": 137.4436,
        "meta_ephemeris_type": 0,
        "meta_classification_type": "U",
        "meta_norad_cat_id": 38992,
        "meta_element_set_no": 999,
        "meta_rev_at_epoch": 4786,
        "meta_bstar": 0,
        "meta_mean_motion_dot": 1.47e-06,
        "meta_mean_motion_ddot": 0,
        "tle_line1": "1 38992U 12062B   25337.85808703  .00000147  00000+0  00000+0 0  9991",
        "tle_line2": "2 38992   0.0676 346.8433 0003373 279.1801 137.4436  1.00273956 47863"
      },
      "geometry": {
        "type": "Point",
        "coordinates": [
          -101.92283751321649,
          -0.09099828790978047
        ]
      }
    },
    {
      "type": "Feature",
      "properties": {
        "norad_id": 39020,
        "name": "EUTELSAT 70B",
        "group": "eutelsat",
        "lat": -0.06021924454039609,
        "lon": -52.994568185759505,
        "alt_km": 35778.26183199124,
        "timestamp": "2025-12-04T10:51:49.777471+00:00",
        "meta_object_name": "EUTELSAT 70B",
        "meta_object_id": "2012-069A",
        "meta_epoch": "2025-12-03T18:55:38.052768",
        "meta_mean_motion": 1.00271658,
        "meta_eccentricity": 0.00043345,
        "meta_inclination": 0.0629,
        "meta_ra_of_asc_node": 2.7299,
        "meta_arg_of_pericenter": 239.4424,
        "meta_mean_anomaly": 185.1062,
        "meta_ephemeris_type": 0,
        "meta_classification_type": "U",
        "meta_norad_cat_id": 39020,
        "meta_element_set_no": 999,
        "meta_rev_at_epoch": 4755,
        "meta_bstar": 0,
        "meta_mean_motion_dot": -2.6e-07,
        "meta_mean_motion_ddot": 0,
        "tle_line1": "1 39020U 12069A   25337.78863487 -.00000026  00000+0  00000+0 0  9990",
        "tle_line2": "2 39020   0.0629   2.7299 0004334 239.4424 185.1062  1.00271658 47558"
      },
      "geometry": {
        "type": "Point",
        "coordinates": [
          -52.994568185759505,
          -0.06021924454039609
        ]
      }
    },
    {
      "type": "Feature",
      "properties": {
        "norad_id": 39122,
        "name": "EUTELSAT 117 WEST A",
        "group": "eutelsat",
        "lat": 0.011361787776973718,
        "lon": 119.65739217553737,
        "alt_km": 35795.167803032295,
        "timestamp": "2025-12-04T10:51:49.777483+00:00",
        "meta_object_name": "EUTELSAT 117 WEST A",
        "meta_object_id": "2013-012A",
        "meta_epoch": "2025-12-03T13:12:01.410912",
        "meta_mean_motion": 1.00274082,
        "meta_eccentricity": 0.000313,
        "meta_inclination": 0.0219,
        "meta_ra_of_asc_node": 309.0576,
        "meta_arg_of_pericenter": 308.0707,
        "meta_mean_anomaly": 256.726,
        "meta_ephemeris_type": 0,
        "meta_classification_type": "U",
        "meta_norad_cat_id": 39122,
        "meta_element_set_no": 999,
        "meta_rev_at_epoch": 4647,
        "meta_bstar": 0,
        "meta_mean_motion_dot": 5e-08,
        "meta_mean_motion_ddot": 0,
        "tle_line1": "1 39122U 13012A   25337.55001633  .00000005  00000+0  00000+0 0  9990",
        "tle_line2": "2 39122   0.0219 309.0576 0003130 308.0707 256.7260  1.00274082 46476"
      },
      "geometry": {
        "type": "Point",
        "coordinates": [
          119.65739217553737,
          0.011361787776973718
        ]
      }
    },
    {
      "type": "Feature",
      "properties": {
        "norad_id": 39163,
        "name": "EUTELSAT 7B",
        "group": "eutelsat",
        "lat": -0.08419481457011,
        "lon": -116.58894798340656,
        "alt_km": 35779.83383314356,
        "timestamp": "2025-12-04T10:51:49.777496+00:00",
        "meta_object_name": "EUTELSAT 7B",
        "meta_object_id": "2013-022A",
        "meta_epoch": "2025-12-03T17:12:48.873312",
        "meta_mean_motion": 1.00269536,
        "meta_eccentricity": 0.00042199,
        "meta_inclination": 0.0678,
        "meta_ra_of_asc_node": 0.663,
        "meta_arg_of_pericenter": 310.3325,
        "meta_mean_anomaly": 27.0084,
        "meta_ephemeris_type": 0,
        "meta_classification_type": "U",
        "meta_norad_cat_id": 39163,
        "meta_element_set_no": 999,
        "meta_rev_at_epoch": 4599,
        "meta_bstar": 0,
        "meta_mean_motion_dot": 6.5e-07,
        "meta_mean_motion_ddot": 0,
        "tle_line1": "1 39163U 13022A   25337.71723233  .00000065  00000+0  00000+0 0  9997",
        "tle_line2": "2 39163   0.0678   0.6630 0004219 310.3325  27.0084  1.00269536 45993"
      },
      "geometry": {
        "type": "Point",
        "coordinates": [
          -116.58894798340656,
          -0.08419481457011
        ]
      }
    },
    {
      "type": "Feature",
      "properties": {
        "norad_id": 39612,
        "name": "EXPRESS-AT1",
        "group": "eutelsat",
        "lat": -0.012369274999771016,
        "lon": -67.53606643025995,
        "alt_km": 35787.220753374204,
        "timestamp": "2025-12-04T10:51:49.777509+00:00",
        "meta_object_name": "EXPRESS-AT1",
        "meta_object_id": "2014-010A",
        "meta_epoch": "2025-12-03T21:56:38.683968",
        "meta_mean_motion": 1.00270078,
        "meta_eccentricity": 2.569e-05,
        "meta_inclination": 0.017,
        "meta_ra_of_asc_node": 302.0572,
        "meta_arg_of_pericenter": 219.2348,
        "meta_mean_anomaly": 296.8676,
        "meta_ephemeris_type": 0,
        "meta_classification_type": "U",
        "meta_norad_cat_id": 39612,
        "meta_element_set_no": 999,
        "meta_rev_at_epoch": 4286,
        "meta_bstar": 0,
        "meta_mean_motion_dot": 9.6e-07,
        "meta_mean_motion_ddot": 0,
        "tle_line1": "1 39612U 14010A   25337.91433662  .00000096  00000+0  00000+0 0  9994",
        "tle_line2": "2 39612   0.0170 302.0572 0000256 219.2348 296.8676  1.00270078 42861"
      },
      "geometry": {
        "type": "Point",
        "coordinates": [
          -67.53606643025995,
          -0.012369274999771016
        ]
      }
    },
    {
      "type": "Feature",
      "properties": {
        "norad_id": 39613,
        "name": "EXPRESS-AT2",
        "group": "eutelsat",
        "lat": 0.032927090640794715,
        "lon": 16.324606371653864,
        "alt_km": 35785.667280193135,
        "timestamp": "2025-12-04T10:51:49.777521+00:00",
        "meta_object_name": "EXPRESS-AT2",
        "meta_object_id": "2014-010B",
        "meta_epoch": "2025-12-04T07:32:36.708000",
        "meta_mean_motion": 1.00270269,
        "meta_eccentricity": 0.0001512,
        "meta_inclination": 0.0214,
        "meta_ra_of_asc_node": 337.5162,
        "meta_arg_of_pericenter": 316.7864,
        "meta_mean_anomaly": 32.0865,
        "meta_ephemeris_type": 0,
        "meta_classification_type": "U",
        "meta_norad_cat_id": 39613,
        "meta_element_set_no": 999,
        "meta_rev_at_epoch": 4254,
        "meta_bstar": 0,
        "meta_mean_motion_dot": 0,
        "meta_mean_motion_ddot": 0,
        "tle_line1": "1 39613U 14010B   25338.31431375  .00000000  00000+0  00000+0 0  9994",
        "tle_line2": "2 39613   0.0214 337.5162 0001512 316.7864  32.0865  1.00270269 42548"
      },
      "geometry": {
        "type": "Point",
        "coordinates": [
          16.324606371653864,
          0.032927090640794715
        ]
      }
    }
  ]
}